[{"OBJECT_NAME":"STARLINK-3260","OBJECT_ID":"2021-125BB","EPOCH":"2026-03-09T16:05:36.785760","MEAN_MOTION":15.08837295,"ECCENTRICITY":0.0001234,"INCLINATION":53.2169,"RA_OF_ASC_NODE":209.2065,"ARG_OF_PERICENTER":80.6164,"MEAN_ANOMALY":279.4968,"EPHEMERIS_TYPE":0,"CLASSIFICATION_TYPE":"U","NORAD_CAT_ID":50205,"ELEMENT_SET_NO":999,"REV_AT_EPOCH":23715,"BSTAR":2.532015e-6,"MEAN_MOTION_DOT":-2.48e-6,"MEAN_MOTION_DDOT":0},{"OBJECT_NAME":"CZ-4C R\/B","OBJECT_ID":"2021-026B","EPOCH":"2026-03-09T16:37:41.696544","MEAN_MOTION":15.16445633,"ECCENTRICITY":0.00393855,"INCLINATION":97.7468,"RA_OF_ASC_NODE":117.371,"ARG_OF_PERICENTER":22.5612,"MEAN_ANOMALY":337.7341,"EPHEMERIS_TYPE":0,"CLASSIFICATION_TYPE":"U","NORAD_CAT_ID":48080,"ELEMENT_SET_NO":999,"REV_AT_EPOCH":27175,"BSTAR":0.00026802982,"MEAN_MOTION_DOT":5.244e-5,"MEAN_MOTION_DDOT":0}]
